[
  {
    "name": "STARLINK-37765",
    "noradId": "69337",
    "line1": "1 69337U 26122J   26168.84485688  .00140639  00000+0  72071-3 0  9997",
    "line2": "2 69337  97.2830 198.3615 0000728 107.0860 253.0488 15.80891780  2268"
  },
  {
    "name": "STARLINK-37788",
    "noradId": "69338",
    "line1": "1 69338U 26122K   26168.91668981 -.02521581  00000+0 -26600-1 0  9993",
    "line2": "2 69338  97.2839 198.4150 0001459  83.9800 271.2477 15.67592561  3475"
  },
  {
    "name": "STARLINK-37743",
    "noradId": "69339",
    "line1": "1 69339U 26122L   26168.91096698 -.01229276  00000+0 -86819-2 0  9998",
    "line2": "2 69339  97.2826 198.4240 0000870 133.9701 226.1637 15.76789378  2272"
  },
  {
    "name": "STARLINK-37780",
    "noradId": "69340",
    "line1": "1 69340U 26122M   26168.84554688 -.00196616  00000+0 -10560-2 0  9990",
    "line2": "2 69340  97.2829 198.3602 0000808  84.5057 275.6303 15.80671393  2264"
  },
  {
    "name": "STARLINK-37781",
    "noradId": "69341",
    "line1": "1 69341U 26122N   26168.91668981 -.02507671  00000+0 -26157-1 0  9998",
    "line2": "2 69341  97.2839 198.4072 0001464  84.7095 253.1860 15.67847402  3475"
  },
  {
    "name": "STARLINK-37782",
    "noradId": "69342",
    "line1": "1 69342U 26122P   26168.91668981  .00177319  00000+0  91258-3 0  9993",
    "line2": "2 69342  97.2843 198.4570 0000924  83.8752   7.0760 15.80700321  3472"
  },
  {
    "name": "STARLINK-37776",
    "noradId": "69343",
    "line1": "1 69343U 26122Q   26168.91668981  .00033062  00000+0  17312-3 0  9999",
    "line2": "2 69343  97.2841 198.4592 0000988 110.8695 345.6721 15.80762429  3477"
  },
  {
    "name": "STARLINK-37786",
    "noradId": "69344",
    "line1": "1 69344U 26122R   26168.91668981 -.02466147  00000+0 -20722-1 0  9995",
    "line2": "2 69344  97.2848 198.4564 0001791  75.3870  16.9743 15.73539827  3475"
  },
  {
    "name": "STARLINK-37785",
    "noradId": "69345",
    "line1": "1 69345U 26122S   26168.91668981 -.02514431  00000+0 -15263-1 0  9990",
    "line2": "2 69345  97.2842 198.4658 0001617  75.9236  36.6853 15.80874842  3471"
  },
  {
    "name": "STARLINK-37773",
    "noradId": "69346",
    "line1": "1 69346U 26122T   26168.91668981 -.02484647  00000+0 -17154-1 0  9997",
    "line2": "2 69346  97.2841 198.4619 0001972  73.0319  30.1614 15.78012347  3524"
  },
  {
    "name": "STARLINK-37744",
    "noradId": "69347",
    "line1": "1 69347U 26122U   26168.91668981 -.01930560  00000+0 -21782-1 0  9999",
    "line2": "2 69347  97.2840 198.4330 0001641  74.4798 323.4995 15.65573717  3476"
  },
  {
    "name": "STARLINK-37775",
    "noradId": "69348",
    "line1": "1 69348U 26122V   26168.91668981 -.02530031  00000+0 -16771-1 0  9992",
    "line2": "2 69348  97.2840 198.4617 0001489  72.2366  30.1943 15.78988164  3477"
  },
  {
    "name": "STARLINK-37777",
    "noradId": "69349",
    "line1": "1 69349U 26122W   26168.77177008  .00598796  00000+0  28900-2 0  9998",
    "line2": "2 69349  97.2835 198.3085 0005265 326.5568  33.5368 15.81020920  2259"
  },
  {
    "name": "STARLINK-37779",
    "noradId": "69350",
    "line1": "1 69350U 26122X   26168.83386089  .00196093  00000+0  99887-3 0  9995",
    "line2": "2 69350  97.2838 198.3774 0000407  69.2999 290.8313 15.80876525  2269"
  },
  {
    "name": "STARLINK-37549",
    "noradId": "69351",
    "line1": "1 69351U 26122Y   26168.91668981 -.02538207  00000+0 -22388-1 0  9990",
    "line2": "2 69351  97.2838 198.4471 0001737  75.2715 354.5242 15.71903177  3472"
  },
  {
    "name": "STARLINK-37778",
    "noradId": "69352",
    "line1": "1 69352U 26122Z   26168.91668981 -.02451490  00000+0 -20268-1 0  9994",
    "line2": "2 69352  97.2836 198.4613 0001780  73.5720  29.1383 15.73889167  3479"
  },
  {
    "name": "STARLINK-37651",
    "noradId": "69353",
    "line1": "1 69353U 26123A   26168.67786693  .00175245  00000+0  87065-3 0  9997",
    "line2": "2 69353  53.1579 239.3481 0000840 117.3622 242.7487 15.80944339  2116"
  },
  {
    "name": "STARLINK-37652",
    "noradId": "69354",
    "line1": "1 69354U 26123B   26168.67900981  .00129816  00000+0  65004-3 0  9998",
    "line2": "2 69354  53.1579 239.3558 0001175  84.7777 275.3380 15.80918615  2114"
  },
  {
    "name": "STARLINK-37593",
    "noradId": "69355",
    "line1": "1 69355U 26123C   26168.67813911  .00289876  00000+0  14172-2 0  9997",
    "line2": "2 69355  53.1576 239.3504 0000894  76.2376 283.8746 15.80968175  2117"
  },
  {
    "name": "STARLINK-37597",
    "noradId": "69356",
    "line1": "1 69356U 26123D   26168.67651329  .00114964  00000+0  57734-3 0  9998",
    "line2": "2 69356  53.1582 239.3399 0001779  56.5192 303.6001 15.80907538  2118"
  },
  {
    "name": "STARLINK-37598",
    "noradId": "69357",
    "line1": "1 69357U 26123E   26168.61119558  .00152356  00000+0  76045-3 0  9999",
    "line2": "2 69357  53.1582 239.6411 0001465  37.6292 322.4833 15.80914238  2106"
  },
  {
    "name": "STARLINK-37602",
    "noradId": "69358",
    "line1": "1 69358U 26123F   26168.91668981 -.00072516  00000+0 -47254-3 0  9993",
    "line2": "2 69358  53.1589 238.2081 0001095  76.8351 175.4297 15.75258358  3325"
  },
  {
    "name": "STARLINK-37600",
    "noradId": "69359",
    "line1": "1 69359U 26123G   26168.91668981 -.00072870  00000+0 -47476-3 0  9993",
    "line2": "2 69359  53.1588 238.1591 0001062  91.8747 184.3033 15.75264519  3323"
  },
  {
    "name": "STARLINK-37599",
    "noradId": "69360",
    "line1": "1 69360U 26123H   26168.91668981 -.00103600  00000+0 -52645-3 0  9995",
    "line2": "2 69360  53.1569 237.9889 0000915  84.6359 274.1700 15.80922420  3277"
  },
  {
    "name": "STARLINK-37039",
    "noradId": "69361",
    "line1": "1 69361U 26123J   26168.66896481  .00130173  00000+0  65168-3 0  9993",
    "line2": "2 69361  53.1582 239.2866 0000891  98.3826 261.7298 15.80922428  2111"
  },
  {
    "name": "STARLINK-37040",
    "noradId": "69362",
    "line1": "1 69362U 26123K   26168.91668981  .00033164  00000+0  17104-3 0  9993",
    "line2": "2 69362  53.1580 237.8185 0000964  71.3094   9.3346 15.80857622  3278"
  },
  {
    "name": "STARLINK-37582",
    "noradId": "69363",
    "line1": "1 69363U 26123L   26168.91668981 -.00053681  00000+0 -34863-3 0  9993",
    "line2": "2 69363  53.1589 238.0514 0001001  89.0930 238.6936 15.75213411  3273"
  },
  {
    "name": "STARLINK-37309",
    "noradId": "69364",
    "line1": "1 69364U 26123M   26168.91668981 -.00010412  00000+0 -49283-4 0  9992",
    "line2": "2 69364  53.1581 237.6987 0000964  72.2811  66.3989 15.80870753  3418"
  },
  {
    "name": "STARLINK-37436",
    "noradId": "69365",
    "line1": "1 69365U 26123N   26168.91668981 -.00010642  00000+0 -50447-4 0  9992",
    "line2": "2 69365  53.1582 237.6622 0000909  86.2746  69.9985 15.80872785  3419"
  },
  {
    "name": "STARLINK-37581",
    "noradId": "69366",
    "line1": "1 69366U 26123P   26168.91668981  .00002068  00000+0  14021-4 0  9992",
    "line2": "2 69366  53.1578 237.7065 0001146  89.7355  45.1358 15.80866775  3260"
  }
]