OBJECT_NAME,OBJECT_ID,EPOCH,MEAN_MOTION,ECCENTRICITY,INCLINATION,RA_OF_ASC_NODE,ARG_OF_PERICENTER,MEAN_ANOMALY,EPHEMERIS_TYPE,CLASSIFICATION_TYPE,NORAD_CAT_ID,ELEMENT_SET_NO,REV_AT_EPOCH,BSTAR,MEAN_MOTION_DOT,MEAN_MOTION_DDOT
STARLINK-37765,2026-122J,2026-06-17T20:16:35.634432,15.80891780,.00007287,97.2830,198.3615,107.0860,253.0488,0,U,69337,999,226,.72071131E-3,.140639E-2,0
STARLINK-37788,2026-122K,2026-06-17T22:00:01.999584,15.67592561,.00014593,97.2839,198.4150,83.9800,271.2477,0,U,69338,999,347,-.26600096E-1,-.2521581E-1,0
STARLINK-37743,2026-122L,2026-06-17T21:51:47.547072,15.76789378,.00008707,97.2826,198.4240,133.9701,226.1637,0,U,69339,999,227,-.86818569E-2,-.1229276E-1,0
STARLINK-37780,2026-122M,2026-06-17T20:17:35.250432,15.80671393,.00008086,97.2829,198.3602,84.5057,275.6303,0,U,69340,999,226,-.1056019E-2,-.196616E-2,0
STARLINK-37781,2026-122N,2026-06-17T22:00:01.999584,15.67847402,.00014649,97.2839,198.4072,84.7095,253.1860,0,U,69341,999,347,-.2615706E-1,-.2507671E-1,0
STARLINK-37782,2026-122P,2026-06-17T22:00:01.999584,15.80700321,.00009241,97.2843,198.4570,83.8752,7.0760,0,U,69342,999,347,.91257656E-3,.177319E-2,0
STARLINK-37776,2026-122Q,2026-06-17T22:00:01.999584,15.80762429,.00009886,97.2841,198.4592,110.8695,345.6721,0,U,69343,999,347,.17311585E-3,.33062E-3,0
STARLINK-37786,2026-122R,2026-06-17T22:00:01.999584,15.73539827,.00017913,97.2848,198.4564,75.3870,16.9743,0,U,69344,999,347,-.20722486E-1,-.2466147E-1,0
STARLINK-37785,2026-122S,2026-06-17T22:00:01.999584,15.80874842,.00016172,97.2842,198.4658,75.9236,36.6853,0,U,69345,999,347,-.15263489E-1,-.2514431E-1,0
STARLINK-37773,2026-122T,2026-06-17T22:00:01.999584,15.78012347,.00019723,97.2841,198.4619,73.0319,30.1614,0,U,69346,999,352,-.17154123E-1,-.2484647E-1,0
STARLINK-37744,2026-122U,2026-06-17T22:00:01.999584,15.65573717,.00016417,97.2840,198.4330,74.4798,323.4995,0,U,69347,999,347,-.21781795E-1,-.193056E-1,0
STARLINK-37775,2026-122V,2026-06-17T22:00:01.999584,15.78988164,.00014894,97.2840,198.4617,72.2366,30.1943,0,U,69348,999,347,-.16771108E-1,-.2530031E-1,0
STARLINK-37777,2026-122W,2026-06-17T18:31:20.934912,15.81020920,.00052654,97.2835,198.3085,326.5568,33.5368,0,U,69349,999,225,.2890041E-2,.598796E-2,0
STARLINK-37779,2026-122X,2026-06-17T20:00:45.580896,15.80876525,.00004075,97.2838,198.3774,69.2999,290.8313,0,U,69350,999,226,.99886607E-3,.196093E-2,0
STARLINK-37549,2026-122Y,2026-06-17T22:00:01.999584,15.71903177,.00017371,97.2838,198.4471,75.2715,354.5242,0,U,69351,999,347,-.22387759E-1,-.2538207E-1,0
STARLINK-37778,2026-122Z,2026-06-17T22:00:01.999584,15.73889167,.00017801,97.2836,198.4613,73.5720,29.1383,0,U,69352,999,347,-.20268263E-1,-.245149E-1,0
STARLINK-37651,2026-123A,2026-06-17T16:16:07.702752,15.80944339,.00008403,53.1579,239.3481,117.3622,242.7487,0,U,69353,999,211,.87064539E-3,.175245E-2,0
STARLINK-37652,2026-123B,2026-06-17T16:17:46.447584,15.80918615,.00011757,53.1579,239.3558,84.7777,275.3380,0,U,69354,999,211,.6500371E-3,.129816E-2,0
STARLINK-37593,2026-123C,2026-06-17T16:16:31.219104,15.80968175,.00008943,53.1576,239.3504,76.2376,283.8746,0,U,69355,999,211,.1417198E-2,.289876E-2,0
STARLINK-37597,2026-123D,2026-06-17T16:14:10.748256,15.80907538,.00017799,53.1582,239.3399,56.5192,303.6001,0,U,69356,999,211,.57734045E-3,.114964E-2,0
STARLINK-37598,2026-123E,2026-06-17T14:40:07.298112,15.80914238,.00014657,53.1582,239.6411,37.6292,322.4833,0,U,69357,999,210,.760451E-3,.152356E-2,0
STARLINK-37602,2026-123F,2026-06-17T22:00:01.999584,15.75258358,.00010957,53.1589,238.2081,76.8351,175.4297,0,U,69358,999,332,-.47253694E-3,-.72516E-3,0
STARLINK-37600,2026-123G,2026-06-17T22:00:01.999584,15.75264519,.00010624,53.1588,238.1591,91.8747,184.3033,0,U,69359,999,332,-.47475968E-3,-.7287E-3,0
STARLINK-37599,2026-123H,2026-06-17T22:00:01.999584,15.80922420,.00009153,53.1569,237.9889,84.6359,274.1700,0,U,69360,999,327,-.52645122E-3,-.1036E-2,0
STARLINK-37039,2026-123J,2026-06-17T16:03:18.559584,15.80922428,.0000891,53.1582,239.2866,98.3826,261.7298,0,U,69361,999,211,.65167542E-3,.130173E-2,0
STARLINK-37040,2026-123K,2026-06-17T22:00:01.999584,15.80857622,.00009648,53.1580,237.8185,71.3094,9.3346,0,U,69362,999,327,.17103985E-3,.33164E-3,0
STARLINK-37582,2026-123L,2026-06-17T22:00:01.999584,15.75213411,.00010011,53.1589,238.0514,89.0930,238.6936,0,U,69363,999,327,-.34862838E-3,-.53681E-3,0
STARLINK-37309,2026-123M,2026-06-17T22:00:01.999584,15.80870753,.00009641,53.1581,237.6987,72.2811,66.3989,0,U,69364,999,341,-.49282637E-4,-.10412E-3,0
STARLINK-37436,2026-123N,2026-06-17T22:00:01.999584,15.80872785,.00009094,53.1582,237.6622,86.2746,69.9985,0,U,69365,999,341,-.50447118E-4,-.10642E-3,0
STARLINK-37581,2026-123P,2026-06-17T22:00:01.999584,15.80866775,.00011461,53.1578,237.7065,89.7355,45.1358,0,U,69366,999,326,.14020721E-4,.2068E-4,0
